[{"OBJECT_NAME":"STARLINK-6238","OBJECT_ID":"2023-061BG","EPOCH":"2025-08-17T07:45:59.262048","MEAN_MOTION":15.02535562,"ECCENTRICITY":9.75e-5,"INCLINATION":43.0025,"RA_OF_ASC_NODE":201.8401,"ARG_OF_PERICENTER":286.5868,"MEAN_ANOMALY":73.4867,"EPHEMERIS_TYPE":0,"CLASSIFICATION_TYPE":"U","NORAD_CAT_ID":56428,"ELEMENT_SET_NO":999,"REV_AT_EPOCH":12631,"BSTAR":1.5342e-5,"MEAN_MOTION_DOT":4.0e-8,"MEAN_MOTION_DDOT":0},{"OBJECT_NAME":"STARLINK-6264","OBJECT_ID":"2023-061BH","EPOCH":"2025-08-17T07:41:11.919840","MEAN_MOTION":15.02527372,"ECCENTRICITY":0.0001741,"INCLINATION":43.0029,"RA_OF_ASC_NODE":201.8135,"ARG_OF_PERICENTER":272.3365,"MEAN_ANOMALY":87.7278,"EPHEMERIS_TYPE":0,"CLASSIFICATION_TYPE":"U","NORAD_CAT_ID":56429,"ELEMENT_SET_NO":999,"REV_AT_EPOCH":12631,"BSTAR":9.049e-5,"MEAN_MOTION_DOT":1.019e-5,"MEAN_MOTION_DDOT":0},{"OBJECT_NAME":"STARLINK-5990","OBJECT_ID":"2023-064A","EPOCH":"2025-08-17T14:24:03.045600","MEAN_MOTION":14.98322905,"ECCENTRICITY":0.0003307,"INCLINATION":70.0024,"RA_OF_ASC_NODE":299.1141,"ARG_OF_PERICENTER":236.0089,"MEAN_ANOMALY":124.0756,"EPHEMERIS_TYPE":0,"CLASSIFICATION_TYPE":"U","NORAD_CAT_ID":56448,"ELEMENT_SET_NO":999,"REV_AT_EPOCH":12467,"BSTAR":-0.00021937,"MEAN_MOTION_DOT":-2.709e-5,"MEAN_MOTION_DDOT":0},{"OBJECT_NAME":"STARLINK-5993","OBJECT_ID":"2023-064B","EPOCH":"2025-08-17T13:17:44.799072","MEAN_MOTION":14.98342035,"ECCENTRICITY":0.0003429,"INCLINATION":69.9991,"RA_OF_ASC_NODE":299.3521,"ARG_OF_PERICENTER":273.2094,"MEAN_ANOMALY":86.8672,"EPHEMERIS_TYPE":0,"CLASSIFICATION_TYPE":"U","NORAD_CAT_ID":56449,"ELEMENT_SET_NO":999,"REV_AT_EPOCH":12502,"BSTAR":8.947e-5,"MEAN_MOTION_DOT":9.75e-6,"MEAN_MOTION_DDOT":0},{"OBJECT_NAME":"STARLINK-5970","OBJECT_ID":"2023-064C","EPOCH":"2025-08-17T14:18:02.817216","MEAN_MOTION":14.98330152,"ECCENTRICITY":0.000334,"INCLINATION":69.9992,"RA_OF_ASC_NODE":299.0973,"ARG_OF_PERICENTER":268.2402,"MEAN_ANOMALY":91.8375,"EPHEMERIS_TYPE":0,"CLASSIFICATION_TYPE":"U","NORAD_CAT_ID":56450,"ELEMENT_SET_NO":999,"REV_AT_EPOCH":12467,"BSTAR":5.3677e-5,"MEAN_MOTION_DOT":5.47e-6,"MEAN_MOTION_DDOT":0},{"OBJECT_NAME":"STARLINK-5985","OBJECT_ID":"2023-064D","EPOCH":"2025-08-17T13:11:46.280544","MEAN_MOTION":14.98304893,"ECCENTRICITY":0.000333,"INCLINATION":69.9994,"RA_OF_ASC_NODE":299.3378,"ARG_OF_PERICENTER":269.7127,"MEAN_ANOMALY":90.3651,"EPHEMERIS_TYPE":0,"CLASSIFICATION_TYPE":"U","NORAD_CAT_ID":56451,"ELEMENT_SET_NO":999,"REV_AT_EPOCH":12466,"BSTAR":-0.00020258,"MEAN_MOTION_DOT":-2.508e-5,"MEAN_MOTION_DDOT":0},{"OBJECT_NAME":"STARLINK-5986","OBJECT_ID":"2023-064E","EPOCH":"2025-08-17T11:29:35.045376","MEAN_MOTION":14.98331883,"ECCENTRICITY":0.0003185,"INCLINATION":69.9992,"RA_OF_ASC_NODE":299.4914,"ARG_OF_PERICENTER":267.2924,"MEAN_ANOMALY":92.787,"EPHEMERIS_TYPE":0,"CLASSIFICATION_TYPE":"U","NORAD_CAT_ID":56452,"ELEMENT_SET_NO":999,"REV_AT_EPOCH":12465,"BSTAR":1.9444e-5,"MEAN_MOTION_DOT":1.39e-6,"MEAN_MOTION_DDOT":0},{"OBJECT_NAME":"STARLINK-5935","OBJECT_ID":"2023-064F","EPOCH":"2025-08-17T14:35:50.479296","MEAN_MOTION":14.98330651,"ECCENTRICITY":0.0003329,"INCLINATION":69.9995,"RA_OF_ASC_NODE":299.14,"ARG_OF_PERICENTER":269.179,"MEAN_ANOMALY":90.8987,"EPHEMERIS_TYPE":0,"CLASSIFICATION_TYPE":"U","NORAD_CAT_ID":56453,"ELEMENT_SET_NO":999,"REV_AT_EPOCH":12467,"BSTAR":4.2266e-5,"MEAN_MOTION_DOT":4.11e-6,"MEAN_MOTION_DDOT":0},{"OBJECT_NAME":"STARLINK-5959","OBJECT_ID":"2023-064G","EPOCH":"2025-08-17T14:05:47.047776","MEAN_MOTION":14.9833194,"ECCENTRICITY":0.0003621,"INCLINATION":69.9995,"RA_OF_ASC_NODE":299.0664,"ARG_OF_PERICENTER":269.7446,"MEAN_ANOMALY":90.3298,"EPHEMERIS_TYPE":0,"CLASSIFICATION_TYPE":"U","NORAD_CAT_ID":56454,"ELEMENT_SET_NO":999,"REV_AT_EPOCH":12467,"BSTAR":5.1944e-5,"MEAN_MOTION_DOT":5.27e-6,"MEAN_MOTION_DDOT":0},{"OBJECT_NAME":"STARLINK-5987","OBJECT_ID":"2023-064H","EPOCH":"2025-08-17T13:59:46.594752","MEAN_MOTION":14.98331903,"ECCENTRICITY":0.0003541,"INCLINATION":69.9994,"RA_OF_ASC_NODE":299.0516,"ARG_OF_PERICENTER":268.6829,"MEAN_ANOMALY":91.3924,"EPHEMERIS_TYPE":0,"CLASSIFICATION_TYPE":"U","NORAD_CAT_ID":56455,"ELEMENT_SET_NO":999,"REV_AT_EPOCH":12467,"BSTAR":6.43e-5,"MEAN_MOTION_DOT":6.74e-6,"MEAN_MOTION_DDOT":0},{"OBJECT_NAME":"STARLINK-5995","OBJECT_ID":"2023-064J","EPOCH":"2025-08-17T14:17:48.594912","MEAN_MOTION":14.98323406,"ECCENTRICITY":0.0003193,"INCLINATION":70.0008,"RA_OF_ASC_NODE":299.0965,"ARG_OF_PERICENTER":267.5847,"MEAN_ANOMALY":92.4947,"EPHEMERIS_TYPE":0,"CLASSIFICATION_TYPE":"U","NORAD_CAT_ID":56456,"ELEMENT_SET_NO":999,"REV_AT_EPOCH":12467,"BSTAR":-0.00010536,"MEAN_MOTION_DOT":-1.35e-5,"MEAN_MOTION_DDOT":0},{"OBJECT_NAME":"STARLINK-5994","OBJECT_ID":"2023-064K","EPOCH":"2025-08-17T14:11:47.734944","MEAN_MOTION":14.98333551,"ECCENTRICITY":0.0003541,"INCLINATION":69.9993,"RA_OF_ASC_NODE":299.0808,"ARG_OF_PERICENTER":269.3079,"MEAN_ANOMALY":90.7674,"EPHEMERIS_TYPE":0,"CLASSIFICATION_TYPE":"U","NORAD_CAT_ID":56457,"ELEMENT_SET_NO":999,"REV_AT_EPOCH":12467,"BSTAR":5.2237e-5,"MEAN_MOTION_DOT":5.3e-6,"MEAN_MOTION_DDOT":0},{"OBJECT_NAME":"STARLINK-6050","OBJECT_ID":"2023-064L","EPOCH":"2025-08-17T14:23:49.141248","MEAN_MOTION":14.98332144,"ECCENTRICITY":0.0004101,"INCLINATION":69.9993,"RA_OF_ASC_NODE":299.1094,"ARG_OF_PERICENTER":267.2205,"MEAN_ANOMALY":92.8485,"EPHEMERIS_TYPE":0,"CLASSIFICATION_TYPE":"U","NORAD_CAT_ID":56458,"ELEMENT_SET_NO":999,"REV_AT_EPOCH":12467,"BSTAR":1.2472e-6,"MEAN_MOTION_DOT":-7.8e-7,"MEAN_MOTION_DDOT":0},{"OBJECT_NAME":"STARLINK-6048","OBJECT_ID":"2023-064M","EPOCH":"2025-08-17T13:35:58.547904","MEAN_MOTION":14.97588591,"ECCENTRICITY":0.0006215,"INCLINATION":70.0007,"RA_OF_ASC_NODE":298.9929,"ARG_OF_PERICENTER":256.1371,"MEAN_ANOMALY":103.9097,"EPHEMERIS_TYPE":0,"CLASSIFICATION_TYPE":"U","NORAD_CAT_ID":56459,"ELEMENT_SET_NO":999,"REV_AT_EPOCH":12466,"BSTAR":0.013493,"MEAN_MOTION_DOT":0.00161586,"MEAN_MOTION_DDOT":0},{"OBJECT_NAME":"STARLINK-6047","OBJECT_ID":"2023-064N","EPOCH":"2025-08-17T13:53:45.987072","MEAN_MOTION":14.98329802,"ECCENTRICITY":0.0003316,"INCLINATION":69.9997,"RA_OF_ASC_NODE":299.0379,"ARG_OF_PERICENTER":268.1644,"MEAN_ANOMALY":91.9135,"EPHEMERIS_TYPE":0,"CLASSIFICATION_TYPE":"U","NORAD_CAT_ID":56460,"ELEMENT_SET_NO":999,"REV_AT_EPOCH":12467,"BSTAR":1.2681e-5,"MEAN_MOTION_DOT":5.8e-7,"MEAN_MOTION_DDOT":0},{"OBJECT_NAME":"STARLINK-6037","OBJECT_ID":"2023-064P","EPOCH":"2025-08-17T13:29:44.684736","MEAN_MOTION":14.98316291,"ECCENTRICITY":0.0003356,"INCLINATION":69.9993,"RA_OF_ASC_NODE":298.978,"ARG_OF_PERICENTER":265.0965,"MEAN_ANOMALY":94.9811,"EPHEMERIS_TYPE":0,"CLASSIFICATION_TYPE":"U","NORAD_CAT_ID":56461,"ELEMENT_SET_NO":999,"REV_AT_EPOCH":12503,"BSTAR":7.9143e-5,"MEAN_MOTION_DOT":8.51e-6,"MEAN_MOTION_DDOT":0},{"OBJECT_NAME":"STARLINK-6045","OBJECT_ID":"2023-064Q","EPOCH":"2025-08-17T12:23:11.904000","MEAN_MOTION":14.98331113,"ECCENTRICITY":0.000347,"INCLINATION":69.9979,"RA_OF_ASC_NODE":259.0467,"ARG_OF_PERICENTER":266.6298,"MEAN_ANOMALY":93.4464,"EPHEMERIS_TYPE":0,"CLASSIFICATION_TYPE":"U","NORAD_CAT_ID":56462,"ELEMENT_SET_NO":999,"REV_AT_EPOCH":12565,"BSTAR":-4.5161e-5,"MEAN_MOTION_DOT":-6.32e-6,"MEAN_MOTION_DDOT":0}]
