STARLINK-6238           
1 56428U 23061BG  25229.32360257  .00000004  00000+0  15342-4 0  9997
2 56428  43.0025 201.8401 0000975 286.5868  73.4867 15.02535562126313
STARLINK-6264           
1 56429U 23061BH  25229.32027685  .00001019  00000+0  90490-4 0  9997
2 56429  43.0029 201.8135 0001741 272.3365  87.7278 15.02527372126313
STARLINK-5990           
1 56448U 23064A   25229.60003525 -.00002709  00000+0 -21937-3 0  9997
2 56448  70.0024 299.1141 0003307 236.0089 124.0756 14.98322905124678
STARLINK-5993           
1 56449U 23064B   25229.55399073  .00000975  00000+0  89470-4 0  9996
2 56449  69.9991 299.3521 0003429 273.2094  86.8672 14.98342035125025
STARLINK-5970           
1 56450U 23064C   25229.59586594  .00000547  00000+0  53677-4 0  9993
2 56450  69.9992 299.0973 0003340 268.2402  91.8375 14.98330152124678
STARLINK-5985           
1 56451U 23064D   25229.54984121 -.00002508  00000+0 -20258-3 0  9996
2 56451  69.9994 299.3378 0003330 269.7127  90.3651 14.98304893124665
STARLINK-5986           
1 56452U 23064E   25229.47887784  .00000139  00000+0  19444-4 0  9998
2 56452  69.9992 299.4914 0003185 267.2924  92.7870 14.98331883124654
STARLINK-5935           
1 56453U 23064F   25229.60822314  .00000411  00000+0  42266-4 0  9993
2 56453  69.9995 299.1400 0003329 269.1790  90.8987 14.98330651124679
STARLINK-5959           
1 56454U 23064G   25229.58735009  .00000527  00000+0  51944-4 0  9996
2 56454  69.9995 299.0664 0003621 269.7446  90.3298 14.98331940124672
STARLINK-5987           
1 56455U 23064H   25229.58317818  .00000674  00000+0  64300-4 0  9994
2 56455  69.9994 299.0516 0003541 268.6829  91.3924 14.98331903124678
STARLINK-5995           
1 56456U 23064J   25229.59570133 -.00001350  00000+0 -10536-3 0  9992
2 56456  70.0008 299.0965 0003193 267.5847  92.4947 14.98323406124673
STARLINK-5994           
1 56457U 23064K   25229.59152471  .00000530  00000+0  52237-4 0  9996
2 56457  69.9993 299.0808 0003541 269.3079  90.7674 14.98333551124674
STARLINK-6050           
1 56458U 23064L   25229.59987432 -.00000078  00000+0  12472-5 0  9996
2 56458  69.9993 299.1094 0004101 267.2205  92.8485 14.98332144124674
STARLINK-6048           
1 56459U 23064M   25229.56664986  .00161586  00000+0  13493-1 0  9991
2 56459  70.0007 298.9929 0006215 256.1371 103.9097 14.97588591124667
STARLINK-6047           
1 56460U 23064N   25229.57900448  .00000058  00000+0  12681-4 0  9997
2 56460  69.9997 299.0379 0003316 268.1644  91.9135 14.98329802124679
STARLINK-6037           
1 56461U 23064P   25229.56232274  .00000851  00000+0  79143-4 0  9999
2 56461  69.9993 298.9780 0003356 265.0965  94.9811 14.98316291125039
STARLINK-6045           
1 56462U 23064Q   25229.51611000 -.00000632  00000+0 -45161-4 0  9995
2 56462  69.9979 259.0467 0003470 266.6298  93.4464 14.98331113125653
